DMSP 5D-3 F16 (USA 172) 
1 28054U 03048A   26160.53577412  .00000001  00000+0  24226-4 0  9993
2 28054  98.9892 184.3134 0007380 160.2006 315.4643 14.14482537168407
METEOSAT-9 (MSG-2)      
1 28912U 05049B   26159.85178779  .00000137  00000+0  00000+0 0  9994
2 28912   9.3416  54.2478 0001703 351.0293 204.2846  1.00268877  6912
DMSP 5D-3 F17 (USA 191) 
1 29522U 06050A   26160.46216031  .00000036  00000+0  41047-4 0  9997
2 29522  98.7378 167.1903 0011314  79.2187 281.0260 14.14992087 11337
FENGYUN 3A              
1 32958U 08026A   26160.43509877  .00000067  00000+0  52091-4 0  9994
2 32958  98.6882 101.4134 0009268 144.1259 216.0541 14.19569565934304
GOES 14                 
1 35491U 09033A   26160.50614425 -.00000243  00000+0  00000+0 0  9997
2 35491   1.6692  83.1363 0001898   5.5083 137.6835  1.00113602  6518
DMSP 5D-3 F18 (USA 210) 
1 35951U 09057A   26160.50373889  .00000248  00000+0  15149-3 0  9998
2 35951  98.9034 141.2897 0009862 274.0704  85.9341 14.14892454858507
EWS-G2 (GOES 15)        
1 36411U 10008A   26160.49701235  .00000035  00000+0  00000+0 0  9996
2 36411   1.2555  82.9872 0005452  39.0550  18.3710  1.00275761 59563
COMS 1                  
1 36744U 10032A   26154.99142485 -.00000334  00000+0  00000+0 0  9999
2 36744   4.7750  75.5286 0001016   4.5847 297.3769  1.00270643 50953
FENGYUN 3B              
1 37214U 10059A   26160.53359421  .00000048  00000+0  48276-4 0  9991
2 37214  98.9624 206.5157 0021460 206.0309 260.2635 14.14840333806342
SUOMI NPP               
1 37849U 11061A   26160.51658647  .00000064  00000+0  51240-4 0  9992
2 37849  98.7953 101.4451 0001959  24.0368 336.0899 14.19515792757356
METEOSAT-10 (MSG-3)     
1 38552U 12035B   26160.34194073  .00000011  00000+0  00000+0 0  9990
2 38552   4.6521  61.0520 0001559 334.1792 345.8157  1.00275834 50778
METOP-B                 
1 38771U 12049A   26160.44657422  .00000077  00000+0  55049-4 0  9991
2 38771  98.6507 212.1000 0002684  37.7760 322.3605 14.21430550712162
INSAT-3D                
1 39216U 13038B   26160.51007453 -.00000322  00000+0  00000+0 0  9992
2 39216   1.9052  82.6392 0000748 316.2948 172.0932  1.00273263 47001
FENGYUN 3C              
1 39260U 13052A   26160.48174597  .00000083  00000+0  63378-4 0  9992
2 39260  98.4975 134.7106 0015609  48.6513 311.6001 14.15753279657479
METEOR-M 2              
1 40069U 14037A   26160.54347373  .00000438  00000+0  21952-3 0  9991
2 40069  98.5112 136.5527 0006985  62.5592 297.6295 14.21460642618233
HIMAWARI-8              
1 40267U 14060A   26159.84027778 -.00000259  00000+0  00000+0 0  9991
2 40267   0.0136 319.3355 0000818 138.5674 242.4936  1.00270961 42676
FENGYUN 2G              
1 40367U 14090A   26159.86966831 -.00000287  00000+0  00000+0 0  9990
2 40367   5.6171  72.9157 0003415 153.8778  83.1535  1.00276806 41915
METEOSAT-11 (MSG-4)     
1 40732U 15034A   26160.27239610  .00000080  00000+0  00000+0 0  9990
2 40732   3.1824  71.1549 0001707   6.4566 287.5516  1.00277861  7132
ELEKTRO-L 2             
1 41105U 15074A   26160.26557611 -.00000102  00000+0  00000+0 0  9998
2 41105   6.6730  70.6207 0001007 284.5070 343.6389  1.00271831 38427
SENTINEL-3A             
1 41335U 16011A   26160.50227897  .00000085  00000+0  53072-4 0  9993
2 41335  98.6249 227.9960 0001353 104.3212 255.8119 14.26737872536963
INSAT-3DR               
1 41752U 16054A   26160.49909235 -.00000060  00000+0  00000+0 0  9996
2 41752   0.0853  87.4648 0010466 186.8080 237.2620  1.00270493 35749
HIMAWARI-9              
1 41836U 16064A   26160.36972367 -.00000257  00000+0  00000+0 0  9990
2 41836   0.0345 150.1248 0000842 333.7433  47.7569  1.00272229 35132
GOES 16                 
1 41866U 16071A   26160.46365454 -.00000074  00000+0  00000+0 0  9992
2 41866   0.3199  85.6009 0000390 312.7885 281.6940  1.00270525 35025
FENGYUN 4A              
1 41882U 16077A   26160.29508830 -.00000340  00000+0  00000+0 0  9990
2 41882   2.3018  80.3704 0008327 151.5209 255.7921  1.00273462 34850
CYGFM05                 
1 41884U 16078A   26159.84150098  .00024058  00000+0  33038-3 0  9993
2 41884  34.9576 315.8393 0006902  64.4552 295.6886 15.56298876527450
CYGFM04                 
1 41885U 16078B   26160.41336961  .00027502  00000+0  31488-3 0  9998
2 41885  34.9326 280.1323 0005974 118.4059 241.7269 15.61077076527787
CYGFM02                 
1 41886U 16078C   26160.49260736  .00033042  00000+0  33696-3 0  9992
2 41886  34.9407 274.3619 0006935 120.5348 239.6063 15.64000113527963
CYGFM01                 
1 41887U 16078D   26159.83382444  .00024044  00000+0  32211-3 0  9994
2 41887  34.9406 317.0150 0006778  57.2874 302.8504 15.56961058527400
CYGFM08                 
1 41888U 16078E   26160.44760242  .00026331  00000+0  31887-3 0  9999
2 41888  34.9433 292.7285 0007812  99.3578 260.8031 15.59609643527766
CYGFM07                 
1 41890U 16078G   26160.40723448  .00025475  00000+0  30752-3 0  9993
2 41890  34.9447 281.3464 0006389 117.5352 242.6022 15.59710234527787
CYGFM03                 
1 41891U 16078H   26160.44220412  .00026712  00000+0  32246-3 0  9996
2 41891  34.9402 283.0525 0005893 104.2001 255.9379 15.59706930527767
